{"type": "FeatureCollection", "features": [ {"type": "Feature", "properties": {"norad_id": 34962, "name": "COSMOS 2251 DEB", "group": "cosmos-2251-debris", "lat": 73.84043558542216, "lon": -83.9078174820206, "alt_km": 742.3897489417859, "timestamp": "2025-12-21T07:34:34.910022+00:00", "meta": {"OBJECT_NAME": "COSMOS 2251 DEB", "OBJECT_ID": "1993-036AER", "EPOCH": "2025-12-18T22:43:00.041664", "MEAN_MOTION": 14.4653439, "ECCENTRICITY": 0.00188463, "INCLINATION": 74.0286, "RA_OF_ASC_NODE": 181.7701, "ARG_OF_PERICENTER": 294.3203, "MEAN_ANOMALY": 65.5987, "EPHEMERIS_TYPE": 0, "CLASSIFICATION_TYPE": "U", "NORAD_CAT_ID": 34962, "ELEMENT_SET_NO": 999, "REV_AT_EPOCH": 87668, "BSTAR": 0.00031666528, "MEAN_MOTION_DOT": 1.116e-05, "MEAN_MOTION_DDOT": 0}, "tle": {"line1": "1 34962U 93036AER 25352.94652826  .00001116  00000+0  31667-3 0  9998", "line2": "2 34962  74.0286 181.7701 0018846 294.3203  65.5987 14.46534390876682"}}, "geometry": {"type": "Point", "coordinates": [-83.9078174820206, 73.84043558542216]}}, {"type": "Feature", "properties": {"norad_id": 34963, "name": "COSMOS 2251 DEB", "group": "cosmos-2251-debris", "lat": 45.966212055844665, "lon": -170.31881448774212, "alt_km": 717.3377159234578, "timestamp": "2025-12-21T07:34:34.910031+00:00", "meta": {"OBJECT_NAME": "COSMOS 2251 DEB", "OBJECT_ID": "1993-036AES", "EPOCH": "2025-12-19T10:17:44.598624", "MEAN_MOTION": 14.51142917, "ECCENTRICITY": 0.0042291, "INCLINATION": 74.1714, "RA_OF_ASC_NODE": 30.2633, "ARG_OF_PERICENTER": 225.4927, "MEAN_ANOMALY": 134.2777, "EPHEMERIS_TYPE": 0, "CLASSIFICATION_TYPE": "U", "NORAD_CAT_ID": 34963, "ELEMENT_SET_NO": 999, "REV_AT_EPOCH": 86898, "BSTAR": 0.00083703, "MEAN_MOTION_DOT": 3.333e-05, "MEAN_MOTION_DDOT": 0}, "tle": {"line1": "1 34963U 93036AES 25353.42898841  .00003333  00000+0  83703-3 0  9993", "line2": "2 34963  74.1714  30.2633 0042291 225.4927 134.2777 14.51142917868982"}}, "geometry": {"type": "Point", "coordinates": [-170.31881448774212, 45.966212055844665]}}, {"type": "Feature", "properties": {"norad_id": 34964, "name": "COSMOS 2251 DEB", "group": "cosmos-2251-debris", "lat": 31.23514581433307, "lon": -17.0450116646277, "alt_km": 1030.8134167803119, "timestamp": "2025-12-21T07:34:34.910040+00:00", "meta": {"OBJECT_NAME": "COSMOS 2251 DEB", "OBJECT_ID": "1993-036AET", "EPOCH": "2025-12-18T07:25:04.519776", "MEAN_MOTION": 14.00628567, "ECCENTRICITY": 0.02123167, "INCLINATION": 73.9712, "RA_OF_ASC_NODE": 338.1457, "ARG_OF_PERICENTER": 195.4091, "MEAN_ANOMALY": 164.0515, "EPHEMERIS_TYPE": 0, "CLASSIFICATION_TYPE": "U", "NORAD_CAT_ID": 34964, "ELEMENT_SET_NO": 999, "REV_AT_EPOCH": 84556, "BSTAR": 0.00089791859, "MEAN_MOTION_DOT": 1.6e-05, "MEAN_MOTION_DDOT": 0}, "tle": {"line1": "1 34964U 93036AET 25352.30908009  .00001600  00000+0  89792-3 0  9997", "line2": "2 34964  73.9712 338.1457 0212316 195.4091 164.0515 14.00628567845561"}}, "geometry": {"type": "Point", "coordinates": [-17.0450116646277, 31.23514581433307]}}, {"type": "Feature", "properties": {"norad_id": 34965, "name": "COSMOS 2251 DEB", "group": "cosmos-2251-debris", "lat": 31.77312270716659, "lon": -77.78805688176865, "alt_km": 728.1307203547331, "timestamp": "2025-12-21T07:34:34.910049+00:00", "meta": {"OBJECT_NAME": "COSMOS 2251 DEB", "OBJECT_ID": "1993-036AEU", "EPOCH": "2025-12-19T15:07:25.013568", "MEAN_MOTION": 14.48723509, "ECCENTRICITY": 0.0026426, "INCLINATION": 74.0517, "RA_OF_ASC_NODE": 115.568, "ARG_OF_PERICENTER": 241.9243, "MEAN_ANOMALY": 117.9244, "EPHEMERIS_TYPE": 0, "CLASSIFICATION_TYPE": "U", "NORAD_CAT_ID": 34965, "ELEMENT_SET_NO": 999, "REV_AT_EPOCH": 87213, "BSTAR": 0.0002461, "MEAN_MOTION_DOT": 9.04e-06, "MEAN_MOTION_DDOT": 0}, "tle": {"line1": "1 34965U 93036AEU 25353.63015062  .00000904  00000+0  24610-3 0  9997", "line2": "2 34965  74.0517 115.5680 0026426 241.9243 117.9244 14.48723509872136"}}, "geometry": {"type": "Point", "coordinates": [-77.78805688176865, 31.77312270716659]}}, {"type": "Feature", "properties": {"norad_id": 34967, "name": "COSMOS 2251 DEB", "group": "cosmos-2251-debris", "lat": -70.61834597717193, "lon": -176.81860318801185, "alt_km": 756.2202345473497, "timestamp": "2025-12-21T07:34:34.910058+00:00", "meta": {"OBJECT_NAME": "COSMOS 2251 DEB", "OBJECT_ID": "1993-036AEW", "EPOCH": "2025-12-13T00:27:20.673792", "MEAN_MOTION": 14.44269018, "ECCENTRICITY": 0.00380101, "INCLINATION": 73.9933, "RA_OF_ASC_NODE": 253.3374, "ARG_OF_PERICENTER": 39.5345, "MEAN_ANOMALY": 320.8573, "EPHEMERIS_TYPE": 0, "CLASSIFICATION_TYPE": "U", "NORAD_CAT_ID": 34967, "ELEMENT_SET_NO": 999, "REV_AT_EPOCH": 64961, "BSTAR": 0.0011451852, "MEAN_MOTION_DOT": 3.946e-05, "MEAN_MOTION_DDOT": 0}, "tle": {"line1": "1 34967U 93036AEW 25347.01898928  .00003946  00000+0  11452-2 0  9992", "line2": "2 34967  73.9933 253.3374 0038010  39.5345 320.8573 14.44269018649616"}}, "geometry": {"type": "Point", "coordinates": [-176.81860318801185, -70.61834597717193]}}, {"type": "Feature", "properties": {"norad_id": 34968, "name": "COSMOS 2251 DEB", "group": "cosmos-2251-debris", "lat": -58.35189404621292, "lon": 78.39118444040314, "alt_km": 718.9329530946497, "timestamp": "2025-12-21T07:34:34.910067+00:00", "meta": {"OBJECT_NAME": "COSMOS 2251 DEB", "OBJECT_ID": "1993-036AEX", "EPOCH": "2025-12-20T22:14:19.745088", "MEAN_MOTION": 14.59418931, "ECCENTRICITY": 0.0086978, "INCLINATION": 74.0378, "RA_OF_ASC_NODE": 231.4631, "ARG_OF_PERICENTER": 349.7282, "MEAN_ANOMALY": 10.2102, "EPHEMERIS_TYPE": 0, "CLASSIFICATION_TYPE": "U", "NORAD_CAT_ID": 34968, "ELEMENT_SET_NO": 999, "REV_AT_EPOCH": 88597, "BSTAR": 9.8447327e-05, "MEAN_MOTION_DOT": 4.59e-06, "MEAN_MOTION_DDOT": 0}, "tle": {"line1": "1 34968U 93036AEX 25354.92661742  .00000459  00000+0  98447-4 0  9990", "line2": "2 34968  74.0378 231.4631 0086978 349.7282  10.2102 14.59418931885972"}}, "geometry": {"type": "Point", "coordinates": [78.39118444040314, -58.35189404621292]}}, {"type": "Feature", "properties": {"norad_id": 34969, "name": "COSMOS 2251 DEB", "group": "cosmos-2251-debris", "lat": -35.61793788458506, "lon": -160.67577285777062, "alt_km": 779.363192924875, "timestamp": "2025-12-21T07:34:34.910076+00:00", "meta": {"OBJECT_NAME": "COSMOS 2251 DEB", "OBJECT_ID": "1993-036AEY", "EPOCH": "2025-12-19T09:18:38.426400", "MEAN_MOTION": 14.32265352, "ECCENTRICITY": 0.0073239, "INCLINATION": 74.0141, "RA_OF_ASC_NODE": 10.9944, "ARG_OF_PERICENTER": 142.5473, "MEAN_ANOMALY": 218.0814, "EPHEMERIS_TYPE": 0, "CLASSIFICATION_TYPE": "U", "NORAD_CAT_ID": 34969, "ELEMENT_SET_NO": 999, "REV_AT_EPOCH": 65232, "BSTAR": 0.00018668, "MEAN_MOTION_DOT": 4.93e-06, "MEAN_MOTION_DDOT": 0}, "tle": {"line1": "1 34969U 93036AEY 25353.38794475  .00000493  00000+0  18668-3 0  9994", "line2": "2 34969  74.0141  10.9944 0073239 142.5473 218.0814 14.32265352652322"}}, "geometry": {"type": "Point", "coordinates": [-160.67577285777062, -35.61793788458506]}}, {"type": "Feature", "properties": {"norad_id": 34971, "name": "COSMOS 2251 DEB", "group": "cosmos-2251-debris", "lat": -9.51396917394744, "lon": 91.46297150347804, "alt_km": 684.4075342911638, "timestamp": "2025-12-21T07:34:34.910105+00:00", "meta": {"OBJECT_NAME": "COSMOS 2251 DEB", "OBJECT_ID": "1993-036AFA", "EPOCH": "2025-12-18T11:38:13.277760", "MEAN_MOTION": 14.55642375, "ECCENTRICITY": 0.00693978, "INCLINATION": 73.9787, "RA_OF_ASC_NODE": 274.0839, "ARG_OF_PERICENTER": 138.3039, "MEAN_ANOMALY": 342.538, "EPHEMERIS_TYPE": 0, "CLASSIFICATION_TYPE": "U", "NORAD_CAT_ID": 34971, "ELEMENT_SET_NO": 999, "REV_AT_EPOCH": 66256, "BSTAR": 0.00012982435, "MEAN_MOTION_DOT": 5.55e-06, "MEAN_MOTION_DDOT": 0}, "tle": {"line1": "1 34971U 93036AFA 25352.48487590  .00000555  00000+0  12982-3 0  9996", "line2": "2 34971  73.9787 274.0839 0069397 138.3039 342.5380 14.55642375662563"}}, "geometry": {"type": "Point", "coordinates": [91.46297150347804, -9.51396917394744]}}, {"type": "Feature", "properties": {"norad_id": 34972, "name": "COSMOS 2251 DEB", "group": "cosmos-2251-debris", "lat": -66.97488994742763, "lon": -104.38748452596029, "alt_km": 647.6352273904185, "timestamp": "2025-12-21T07:34:34.910114+00:00", "meta": {"OBJECT_NAME": "COSMOS 2251 DEB", "OBJECT_ID": "1993-036AFB", "EPOCH": "2025-12-20T04:37:09.782112", "MEAN_MOTION": 14.72993078, "ECCENTRICITY": 0.0033079, "INCLINATION": 73.988, "RA_OF_ASC_NODE": 35.2981, "ARG_OF_PERICENTER": 193.0312, "MEAN_ANOMALY": 226.1658, "EPHEMERIS_TYPE": 0, "CLASSIFICATION_TYPE": "U", "NORAD_CAT_ID": 34972, "ELEMENT_SET_NO": 999, "REV_AT_EPOCH": 87760, "BSTAR": 0.00080503, "MEAN_MOTION_DOT": 5.185e-05, "MEAN_MOTION_DDOT": 0}, "tle": {"line1": "1 34972U 93036AFB 25354.19247433  .00005185  00000+0  80503-3 0  9995", "line2": "2 34972  73.9880  35.2981 0033079 193.0312 226.1658 14.72993078877609"}}, "geometry": {"type": "Point", "coordinates": [-104.38748452596029, -66.97488994742763]}}, {"type": "Feature", "properties": {"norad_id": 34976, "name": "COSMOS 2251 DEB", "group": "cosmos-2251-debris", "lat": 70.56223962404302, "lon": 55.3711087476978, "alt_km": 652.5552237728871, "timestamp": "2025-12-21T07:34:34.910123+00:00", "meta": {"OBJECT_NAME": "COSMOS 2251 DEB", "OBJECT_ID": "1993-036AFF", "EPOCH": "2025-12-20T03:45:07.153056", "MEAN_MOTION": 14.7671662, "ECCENTRICITY": 0.00478536, "INCLINATION": 74.058, "RA_OF_ASC_NODE": 291.7337, "ARG_OF_PERICENTER": 336.8692, "MEAN_ANOMALY": 83.1588, "EPHEMERIS_TYPE": 0, "CLASSIFICATION_TYPE": "U", "NORAD_CAT_ID": 34976, "ELEMENT_SET_NO": 999, "REV_AT_EPOCH": 88383, "BSTAR": 0.0010232956, "MEAN_MOTION_DOT": 7.275e-05, "MEAN_MOTION_DDOT": 0}, "tle": {"line1": "1 34976U 93036AFF 25354.15633279  .00007275  00000+0  10233-2 0  9996", "line2": "2 34976  74.0580 291.7337 0047853 336.8692  83.1588 14.76716620883834"}}, "geometry": {"type": "Point", "coordinates": [55.3711087476978, 70.56223962404302]}}]}